ONEWEB-0282             
1 49000U 21060AK  26073.48022081  .00000085  00000+0  18814-3 0  9992
2 49000  87.9013 247.6157 0001722  91.9663 268.1666 13.16593953227147
ONEWEB-0283             
1 49001U 21060AL  26073.54513352  .00000099  00000+0  22631-3 0  9993
2 49001  87.9006 247.6020 0001745 102.6276 257.5050 13.16594031227163
ONEWEB-0284             
1 49002U 21060AM  26073.46281094  .00000100  00000+0  22806-3 0  9997
2 49002  87.9009 247.6098 0001930  90.3265 269.8087 13.16594040227132
ONEWEB-0285             
1 49075U 21075A   26073.52617975 -.00000141  00000+0 -42714-3 0  9998
2 49075  87.9008   9.4496 0001870  79.3158 280.8181 13.12441981222794
ONEWEB-0286             
1 49076U 21075B   26073.27955294  .00000260  00000+0  68740-3 0  9997
2 49076  87.9000   9.5248 0001679  73.8397 286.2916 13.12443018222119
ONEWEB-0287             
1 49077U 21075C   26073.55019108  .00000089  00000+0  19557-3 0  9995
2 49077  87.9160  24.6585 0001730  66.0799 294.0514 13.17648939221166
ONEWEB-0288             
1 49078U 21075D   26073.56092385  .00000190  00000+0  49166-3 0  9997
2 49078  87.9009   9.4370 0001897  75.9850 284.1490 13.12444175222775
ONEWEB-0289             
1 49079U 21075E   26073.36105092  .00000082  00000+0  17773-3 0  9995
2 49079  87.9165  24.7079 0002289  79.0840 281.0549 13.17648249221712
ONEWEB-0290             
1 49080U 21075F   26073.56201343  .00000072  00000+0  15299-3 0  9995
2 49080  87.9166  24.6372 0002423  84.7055 275.4353 13.17650356221151
ONEWEB-0291             
1 49081U 21075G   26073.39494967  .00000049  00000+0  92810-4 0  9992
2 49081  87.9168  24.6786 0002023  69.7261 290.4088 13.17648816221128
ONEWEB-0293             
1 49082U 21075H   26073.42026446  .00000053  00000+0  10234-3 0  9994
2 49082  87.9156  24.6837 0002021  78.8986 281.2373 13.17649356221154
ONEWEB-0294             
1 49083U 21075J   26073.56770402  .00000380  00000+0  10198-2 0  9999
2 49083  87.9011   9.4382 0002193  78.5333 281.6042 13.12443878222169
ONEWEB-0295             
1 49084U 21075K   26073.57129130  .00000062  00000+0  12734-3 0  9993
2 49084  87.9155  24.6587 0001919  69.3025 290.8313 13.17650707221131
ONEWEB-0296             
1 49085U 21075L   26073.54735982 -.00000328  00000+0 -94637-3 0  9998
2 49085  87.9017   9.4452 0001879  68.4429 291.6900 13.12444092222162
ONEWEB-0297             
1 49086U 21075M   26073.34915922  .00000500  00000+0  13547-2 0  9991
2 49086  87.9000   9.5096 0001791  75.3727 284.7600 13.12442705222744
ONEWEB-0298             
1 49087U 21075N   26073.57564044  .00000118  00000+0  27141-3 0  9993
2 49087  87.9161  24.6544 0001734  80.4078 279.7249 13.17648998221167
ONEWEB-0299             
1 49088U 21075P   26073.57718785  .00000097  00000+0  21634-3 0  9994
2 49088  87.9169  24.6254 0001782  74.6762 285.4566 13.17648725221144
