[{"OBJECT_NAME":"ONEWEB-0282","OBJECT_ID":"2021-060AK","EPOCH":"2026-03-14T11:31:31.077984","MEAN_MOTION":13.16593953,"ECCENTRICITY":0.00017223,"INCLINATION":87.9013,"RA_OF_ASC_NODE":247.6157,"ARG_OF_PERICENTER":91.9663,"MEAN_ANOMALY":268.1666,"EPHEMERIS_TYPE":0,"CLASSIFICATION_TYPE":"U","NORAD_CAT_ID":49000,"ELEMENT_SET_NO":999,"REV_AT_EPOCH":22714,"BSTAR":0.00018814211,"MEAN_MOTION_DOT":8.5e-7,"MEAN_MOTION_DDOT":0},{"OBJECT_NAME":"ONEWEB-0283","OBJECT_ID":"2021-060AL","EPOCH":"2026-03-14T13:04:59.536128","MEAN_MOTION":13.16594031,"ECCENTRICITY":0.00017456,"INCLINATION":87.9006,"RA_OF_ASC_NODE":247.602,"ARG_OF_PERICENTER":102.6276,"MEAN_ANOMALY":257.505,"EPHEMERIS_TYPE":0,"CLASSIFICATION_TYPE":"U","NORAD_CAT_ID":49001,"ELEMENT_SET_NO":999,"REV_AT_EPOCH":22716,"BSTAR":0.00022631317,"MEAN_MOTION_DOT":9.9e-7,"MEAN_MOTION_DDOT":0},{"OBJECT_NAME":"ONEWEB-0284","OBJECT_ID":"2021-060AM","EPOCH":"2026-03-14T11:06:26.865216","MEAN_MOTION":13.1659404,"ECCENTRICITY":0.00019302,"INCLINATION":87.9009,"RA_OF_ASC_NODE":247.6098,"ARG_OF_PERICENTER":90.3265,"MEAN_ANOMALY":269.8087,"EPHEMERIS_TYPE":0,"CLASSIFICATION_TYPE":"U","NORAD_CAT_ID":49002,"ELEMENT_SET_NO":999,"REV_AT_EPOCH":22713,"BSTAR":0.00022805736,"MEAN_MOTION_DOT":1.0e-6,"MEAN_MOTION_DDOT":0},{"OBJECT_NAME":"ONEWEB-0285","OBJECT_ID":"2021-075A","EPOCH":"2026-03-14T12:37:41.930400","MEAN_MOTION":13.12441981,"ECCENTRICITY":0.00018701,"INCLINATION":87.9008,"RA_OF_ASC_NODE":9.4496,"ARG_OF_PERICENTER":79.3158,"MEAN_ANOMALY":280.8181,"EPHEMERIS_TYPE":0,"CLASSIFICATION_TYPE":"U","NORAD_CAT_ID":49075,"ELEMENT_SET_NO":999,"REV_AT_EPOCH":22279,"BSTAR":-0.00042713804,"MEAN_MOTION_DOT":-1.41e-6,"MEAN_MOTION_DDOT":0},{"OBJECT_NAME":"ONEWEB-0286","OBJECT_ID":"2021-075B","EPOCH":"2026-03-14T06:42:33.374016","MEAN_MOTION":13.12443018,"ECCENTRICITY":0.00016795,"INCLINATION":87.9,"RA_OF_ASC_NODE":9.5248,"ARG_OF_PERICENTER":73.8397,"MEAN_ANOMALY":286.2916,"EPHEMERIS_TYPE":0,"CLASSIFICATION_TYPE":"U","NORAD_CAT_ID":49076,"ELEMENT_SET_NO":999,"REV_AT_EPOCH":22211,"BSTAR":0.00068739846,"MEAN_MOTION_DOT":2.6e-6,"MEAN_MOTION_DDOT":0},{"OBJECT_NAME":"ONEWEB-0287","OBJECT_ID":"2021-075C","EPOCH":"2026-03-14T13:12:16.509312","MEAN_MOTION":13.17648939,"ECCENTRICITY":0.00017306,"INCLINATION":87.916,"RA_OF_ASC_NODE":24.6585,"ARG_OF_PERICENTER":66.0799,"MEAN_ANOMALY":294.0514,"EPHEMERIS_TYPE":0,"CLASSIFICATION_TYPE":"U","NORAD_CAT_ID":49077,"ELEMENT_SET_NO":999,"REV_AT_EPOCH":22116,"BSTAR":0.00019556808,"MEAN_MOTION_DOT":8.9e-7,"MEAN_MOTION_DDOT":0},{"OBJECT_NAME":"ONEWEB-0288","OBJECT_ID":"2021-075D","EPOCH":"2026-03-14T13:27:43.820640","MEAN_MOTION":13.12444175,"ECCENTRICITY":0.00018979,"INCLINATION":87.9009,"RA_OF_ASC_NODE":9.437,"ARG_OF_PERICENTER":75.985,"MEAN_ANOMALY":284.149,"EPHEMERIS_TYPE":0,"CLASSIFICATION_TYPE":"U","NORAD_CAT_ID":49078,"ELEMENT_SET_NO":999,"REV_AT_EPOCH":22277,"BSTAR":0.00049165522,"MEAN_MOTION_DOT":1.9e-6,"MEAN_MOTION_DDOT":0},{"OBJECT_NAME":"ONEWEB-0289","OBJECT_ID":"2021-075E","EPOCH":"2026-03-14T08:39:54.799488","MEAN_MOTION":13.17648249,"ECCENTRICITY":0.0002289,"INCLINATION":87.9165,"RA_OF_ASC_NODE":24.7079,"ARG_OF_PERICENTER":79.084,"MEAN_ANOMALY":281.0549,"EPHEMERIS_TYPE":0,"CLASSIFICATION_TYPE":"U","NORAD_CAT_ID":49079,"ELEMENT_SET_NO":999,"REV_AT_EPOCH":22171,"BSTAR":0.0001777255,"MEAN_MOTION_DOT":8.2e-7,"MEAN_MOTION_DDOT":0},{"OBJECT_NAME":"ONEWEB-0290","OBJECT_ID":"2021-075F","EPOCH":"2026-03-14T13:29:17.960352","MEAN_MOTION":13.17650356,"ECCENTRICITY":0.00024231,"INCLINATION":87.9166,"RA_OF_ASC_NODE":24.6372,"ARG_OF_PERICENTER":84.7055,"MEAN_ANOMALY":275.4353,"EPHEMERIS_TYPE":0,"CLASSIFICATION_TYPE":"U","NORAD_CAT_ID":49080,"ELEMENT_SET_NO":999,"REV_AT_EPOCH":22115,"BSTAR":0.00015298798,"MEAN_MOTION_DOT":7.2e-7,"MEAN_MOTION_DDOT":0},{"OBJECT_NAME":"ONEWEB-0291","OBJECT_ID":"2021-075G","EPOCH":"2026-03-14T09:28:43.651488","MEAN_MOTION":13.17648816,"ECCENTRICITY":0.00020233,"INCLINATION":87.9168,"RA_OF_ASC_NODE":24.6786,"ARG_OF_PERICENTER":69.7261,"MEAN_ANOMALY":290.4088,"EPHEMERIS_TYPE":0,"CLASSIFICATION_TYPE":"U","NORAD_CAT_ID":49081,"ELEMENT_SET_NO":999,"REV_AT_EPOCH":22112,"BSTAR":9.2810038e-5,"MEAN_MOTION_DOT":4.9e-7,"MEAN_MOTION_DDOT":0},{"OBJECT_NAME":"ONEWEB-0293","OBJECT_ID":"2021-075H","EPOCH":"2026-03-14T10:05:10.849344","MEAN_MOTION":13.17649356,"ECCENTRICITY":0.00020216,"INCLINATION":87.9156,"RA_OF_ASC_NODE":24.6837,"ARG_OF_PERICENTER":78.8986,"MEAN_ANOMALY":281.2373,"EPHEMERIS_TYPE":0,"CLASSIFICATION_TYPE":"U","NORAD_CAT_ID":49082,"ELEMENT_SET_NO":999,"REV_AT_EPOCH":22115,"BSTAR":0.00010233636,"MEAN_MOTION_DOT":5.3e-7,"MEAN_MOTION_DDOT":0},{"OBJECT_NAME":"ONEWEB-0294","OBJECT_ID":"2021-075J","EPOCH":"2026-03-14T13:37:29.627328","MEAN_MOTION":13.12443878,"ECCENTRICITY":0.00021939,"INCLINATION":87.9011,"RA_OF_ASC_NODE":9.4382,"ARG_OF_PERICENTER":78.5333,"MEAN_ANOMALY":281.6042,"EPHEMERIS_TYPE":0,"CLASSIFICATION_TYPE":"U","NORAD_CAT_ID":49083,"ELEMENT_SET_NO":999,"REV_AT_EPOCH":22216,"BSTAR":0.0010198135,"MEAN_MOTION_DOT":3.8e-6,"MEAN_MOTION_DDOT":0},{"OBJECT_NAME":"ONEWEB-0295","OBJECT_ID":"2021-075K","EPOCH":"2026-03-14T13:42:39.568320","MEAN_MOTION":13.17650707,"ECCENTRICITY":0.00019192,"INCLINATION":87.9155,"RA_OF_ASC_NODE":24.6587,"ARG_OF_PERICENTER":69.3025,"MEAN_ANOMALY":290.8313,"EPHEMERIS_TYPE":0,"CLASSIFICATION_TYPE":"U","NORAD_CAT_ID":49084,"ELEMENT_SET_NO":999,"REV_AT_EPOCH":22113,"BSTAR":0.00012733726,"MEAN_MOTION_DOT":6.2e-7,"MEAN_MOTION_DDOT":0},{"OBJECT_NAME":"ONEWEB-0296","OBJECT_ID":"2021-075L","EPOCH":"2026-03-14T13:08:11.888448","MEAN_MOTION":13.12444092,"ECCENTRICITY":0.00018793,"INCLINATION":87.9017,"RA_OF_ASC_NODE":9.4452,"ARG_OF_PERICENTER":68.4429,"MEAN_ANOMALY":291.69,"EPHEMERIS_TYPE":0,"CLASSIFICATION_TYPE":"U","NORAD_CAT_ID":49085,"ELEMENT_SET_NO":999,"REV_AT_EPOCH":22216,"BSTAR":-0.00094636649,"MEAN_MOTION_DOT":-3.28e-6,"MEAN_MOTION_DDOT":0},{"OBJECT_NAME":"ONEWEB-0297","OBJECT_ID":"2021-075M","EPOCH":"2026-03-14T08:22:47.356608","MEAN_MOTION":13.12442705,"ECCENTRICITY":0.0001791,"INCLINATION":87.9,"RA_OF_ASC_NODE":9.5096,"ARG_OF_PERICENTER":75.3727,"MEAN_ANOMALY":284.76,"EPHEMERIS_TYPE":0,"CLASSIFICATION_TYPE":"U","NORAD_CAT_ID":49086,"ELEMENT_SET_NO":999,"REV_AT_EPOCH":22274,"BSTAR":0.0013547202,"MEAN_MOTION_DOT":5.0e-6,"MEAN_MOTION_DDOT":0},{"OBJECT_NAME":"ONEWEB-0298","OBJECT_ID":"2021-075N","EPOCH":"2026-03-14T13:48:55.334016","MEAN_MOTION":13.17648998,"ECCENTRICITY":0.00017344,"INCLINATION":87.9161,"RA_OF_ASC_NODE":24.6544,"ARG_OF_PERICENTER":80.4078,"MEAN_ANOMALY":279.7249,"EPHEMERIS_TYPE":0,"CLASSIFICATION_TYPE":"U","NORAD_CAT_ID":49087,"ELEMENT_SET_NO":999,"REV_AT_EPOCH":22116,"BSTAR":0.00027140609,"MEAN_MOTION_DOT":1.18e-6,"MEAN_MOTION_DDOT":0},{"OBJECT_NAME":"ONEWEB-0299","OBJECT_ID":"2021-075P","EPOCH":"2026-03-14T13:51:09.030240","MEAN_MOTION":13.17648725,"ECCENTRICITY":0.00017821,"INCLINATION":87.9169,"RA_OF_ASC_NODE":24.6254,"ARG_OF_PERICENTER":74.6762,"MEAN_ANOMALY":285.4566,"EPHEMERIS_TYPE":0,"CLASSIFICATION_TYPE":"U","NORAD_CAT_ID":49088,"ELEMENT_SET_NO":999,"REV_AT_EPOCH":22114,"BSTAR":0.00021634429,"MEAN_MOTION_DOT":9.7e-7,"MEAN_MOTION_DDOT":0}]
